AMOS-4                  
1 39237U 13045A   26142.10316480 -.00000001  00000+0  00000+0 0  9995
2 39237   0.0187 276.2831 0003012 123.8445 301.7702  1.00272562 46694
AEHF-3 (USA 246)        
1 39256U 13050A   26142.24763021  .00000021  00000+0  00000+0 0  9995
2 39256   5.2305  67.4270 0088032 188.4336 308.9557  1.00274995 45397
ASTRA 2E                
1 39285U 13056A   26142.23850500  .00000142  00000+0  00000+0 0  9995
2 39285   0.0601 334.5979 0002647  82.7378 296.9015  1.00273243 46150
FM-6                    
1 39360U 13058A   26142.20320987 -.00000024  00000+0  00000+0 0  9999
2 39360   0.0113  38.5701 0001427  90.9663  67.0876  1.00272832 45816
RADUGA-1M 3             
1 39375U 13062A   26142.02590060  .00000146  00000+0  00000+0 0  9995
2 39375   5.8943  72.6799 0001462 260.5582 310.7318  1.00271791 45841
SES-8                   
1 39460U 13071A   26142.18358324 -.00000278  00000+0  00000+0 0  9999
2 39460   0.0136 292.6559 0002484 131.9484 336.3083  1.00272343 44163
INMARSAT 5-F1           
1 39476U 13073A   26142.10273147  .00000020  00000+0  00000+0 0  9993
2 39476   0.0149 352.8479 0000468 306.4100  40.0947  1.00271853 45319
TKSAT-1 (TUPAC KATARI)  
1 39481U 13075A   26142.21455067 -.00000203  00000+0  00000+0 0  9990
2 39481   0.0040 140.2827 0002546 263.1406 186.4522  1.00272991 45349
EXPRESS-AM5             
1 39487U 13077A   26142.36433426 -.00000288  00000+0  00000+0 0  9992
2 39487   0.0180 286.9771 0001774  21.9049 202.3076  1.00271418 46101
GSAT-14                 
1 39498U 14001A   26142.10498481 -.00000085  00000+0  00000+0 0  9991
2 39498   0.0431 106.7251 0000743 236.7230   8.1015  1.00271758 45119
THAICOM 6               
1 39500U 14002A   26142.17713347 -.00000129  00000+0  00000+0 0  9993
2 39500   0.0724 106.9910 0003941 344.5094 290.6146  1.00271668 45192
TDRS 12                 
1 39504U 14004A   26142.15347336 -.00000278  00000+0  00000+0 0  9993
2 39504   3.9530  18.6735 0002518 221.8781  13.4961  1.00275872 44013
ABS-2                   
1 39508U 14006A   26142.10515815 -.00000094  00000+0  00000+0 0  9999
2 39508   0.0524  91.9874 0003853 322.0944 298.4417  1.00271611 45013
ATHENA-FIDUS            
1 39509U 14006B   26142.24032501  .00000146  00000+0  00000+0 0  9998
2 39509   0.0354 102.7686 0001310 313.0093 308.4066  1.00270622 44829
TURKSAT 4A              
1 39522U 14007A   26142.24119168  .00000138  00000+0  00000+0 0  9990
2 39522   0.0522 293.1669 0001787  36.8356  38.7134  1.00272841 44708
EXPRESS-AT1             
1 39612U 14010A   26142.17340679  .00000040  00000+0  00000+0 0  9991
2 39612   0.1917  85.7519 0002816  30.3322 245.7665  1.00296307 44557
EXPRESS-AT2             
1 39613U 14010B   26142.17271345  .00000070  00000+0  00000+0 0  9998
2 39613   0.0178 291.2475 0000617  19.2036  47.5213  1.00272463 44235
