[{"OBJECT_NAME":"AMOS-4","OBJECT_ID":"2013-045A","EPOCH":"2026-05-22T02:28:33.438720","MEAN_MOTION":1.00272562,"ECCENTRICITY":0.00030121,"INCLINATION":0.0187,"RA_OF_ASC_NODE":276.2831,"ARG_OF_PERICENTER":123.8445,"MEAN_ANOMALY":301.7702,"EPHEMERIS_TYPE":0,"CLASSIFICATION_TYPE":"U","NORAD_CAT_ID":39237,"ELEMENT_SET_NO":999,"REV_AT_EPOCH":4669,"BSTAR":0,"MEAN_MOTION_DOT":-1e-08,"MEAN_MOTION_DDOT":0},{"OBJECT_NAME":"AEHF-3 (USA 246)","OBJECT_ID":"2013-050A","EPOCH":"2026-05-22T05:56:35.250144","MEAN_MOTION":1.00274995,"ECCENTRICITY":0.00880323,"INCLINATION":5.2305,"RA_OF_ASC_NODE":67.427,"ARG_OF_PERICENTER":188.4336,"MEAN_ANOMALY":308.9557,"EPHEMERIS_TYPE":0,"CLASSIFICATION_TYPE":"U","NORAD_CAT_ID":39256,"ELEMENT_SET_NO":999,"REV_AT_EPOCH":4539,"BSTAR":0,"MEAN_MOTION_DOT":2.1e-07,"MEAN_MOTION_DDOT":0},{"OBJECT_NAME":"ASTRA 2E","OBJECT_ID":"2013-056A","EPOCH":"2026-05-22T05:43:26.832000","MEAN_MOTION":1.00273243,"ECCENTRICITY":0.00026478,"INCLINATION":0.0601,"RA_OF_ASC_NODE":334.5979,"ARG_OF_PERICENTER":82.7378,"MEAN_ANOMALY":296.9015,"EPHEMERIS_TYPE":0,"CLASSIFICATION_TYPE":"U","NORAD_CAT_ID":39285,"ELEMENT_SET_NO":999,"REV_AT_EPOCH":4615,"BSTAR":0,"MEAN_MOTION_DOT":1.42e-06,"MEAN_MOTION_DDOT":0},{"OBJECT_NAME":"FM-6","OBJECT_ID":"2013-058A","EPOCH":"2026-05-22T04:52:37.332768","MEAN_MOTION":1.00272832,"ECCENTRICITY":0.00014275,"INCLINATION":0.0113,"RA_OF_ASC_NODE":38.5701,"ARG_OF_PERICENTER":90.9663,"MEAN_ANOMALY":67.0876,"EPHEMERIS_TYPE":0,"CLASSIFICATION_TYPE":"U","NORAD_CAT_ID":39360,"ELEMENT_SET_NO":999,"REV_AT_EPOCH":4581,"BSTAR":0,"MEAN_MOTION_DOT":-2.4e-07,"MEAN_MOTION_DDOT":0},{"OBJECT_NAME":"RADUGA-1M 3","OBJECT_ID":"2013-062A","EPOCH":"2026-05-22T00:37:17.811840","MEAN_MOTION":1.00271791,"ECCENTRICITY":0.0001462,"INCLINATION":5.8943,"RA_OF_ASC_NODE":72.6799,"ARG_OF_PERICENTER":260.5582,"MEAN_ANOMALY":310.7318,"EPHEMERIS_TYPE":0,"CLASSIFICATION_TYPE":"U","NORAD_CAT_ID":39375,"ELEMENT_SET_NO":999,"REV_AT_EPOCH":4584,"BSTAR":0,"MEAN_MOTION_DOT":1.46e-06,"MEAN_MOTION_DDOT":0},{"OBJECT_NAME":"SES-8","OBJECT_ID":"2013-071A","EPOCH":"2026-05-22T04:24:21.591936","MEAN_MOTION":1.00272343,"ECCENTRICITY":0.00024841,"INCLINATION":0.0136,"RA_OF_ASC_NODE":292.6559,"ARG_OF_PERICENTER":131.9484,"MEAN_ANOMALY":336.3083,"EPHEMERIS_TYPE":0,"CLASSIFICATION_TYPE":"U","NORAD_CAT_ID":39460,"ELEMENT_SET_NO":999,"REV_AT_EPOCH":4416,"BSTAR":0,"MEAN_MOTION_DOT":-2.78e-06,"MEAN_MOTION_DDOT":0},{"OBJECT_NAME":"INMARSAT 5-F1","OBJECT_ID":"2013-073A","EPOCH":"2026-05-22T02:27:55.999008","MEAN_MOTION":1.00271853,"ECCENTRICITY":4.681e-05,"INCLINATION":0.0149,"RA_OF_ASC_NODE":352.8479,"ARG_OF_PERICENTER":306.41,"MEAN_ANOMALY":40.0947,"EPHEMERIS_TYPE":0,"CLASSIFICATION_TYPE":"U","NORAD_CAT_ID":39476,"ELEMENT_SET_NO":999,"REV_AT_EPOCH":4531,"BSTAR":0,"MEAN_MOTION_DOT":2e-07,"MEAN_MOTION_DDOT":0},{"OBJECT_NAME":"TKSAT-1 (TUPAC KATARI)","OBJECT_ID":"2013-075A","EPOCH":"2026-05-22T05:08:57.177888","MEAN_MOTION":1.00272991,"ECCENTRICITY":0.00025462,"INCLINATION":0.004,"RA_OF_ASC_NODE":140.2827,"ARG_OF_PERICENTER":263.1406,"MEAN_ANOMALY":186.4522,"EPHEMERIS_TYPE":0,"CLASSIFICATION_TYPE":"U","NORAD_CAT_ID":39481,"ELEMENT_SET_NO":999,"REV_AT_EPOCH":4534,"BSTAR":0,"MEAN_MOTION_DOT":-2.03e-06,"MEAN_MOTION_DDOT":0},{"OBJECT_NAME":"EXPRESS-AM5","OBJECT_ID":"2013-077A","EPOCH":"2026-05-22T08:44:38.480064","MEAN_MOTION":1.00271418,"ECCENTRICITY":0.0001774,"INCLINATION":0.018,"RA_OF_ASC_NODE":286.9771,"ARG_OF_PERICENTER":21.9049,"MEAN_ANOMALY":202.3076,"EPHEMERIS_TYPE":0,"CLASSIFICATION_TYPE":"U","NORAD_CAT_ID":39487,"ELEMENT_SET_NO":999,"REV_AT_EPOCH":4610,"BSTAR":0,"MEAN_MOTION_DOT":-2.88e-06,"MEAN_MOTION_DDOT":0},{"OBJECT_NAME":"GSAT-14","OBJECT_ID":"2014-001A","EPOCH":"2026-05-22T02:31:10.687584","MEAN_MOTION":1.00271758,"ECCENTRICITY":7.432e-05,"INCLINATION":0.0431,"RA_OF_ASC_NODE":106.7251,"ARG_OF_PERICENTER":236.723,"MEAN_ANOMALY":8.1015,"EPHEMERIS_TYPE":0,"CLASSIFICATION_TYPE":"U","NORAD_CAT_ID":39498,"ELEMENT_SET_NO":999,"REV_AT_EPOCH":4511,"BSTAR":0,"MEAN_MOTION_DOT":-8.5e-07,"MEAN_MOTION_DDOT":0},{"OBJECT_NAME":"THAICOM 6","OBJECT_ID":"2014-002A","EPOCH":"2026-05-22T04:15:04.331808","MEAN_MOTION":1.00271668,"ECCENTRICITY":0.00039414,"INCLINATION":0.0724,"RA_OF_ASC_NODE":106.991,"ARG_OF_PERICENTER":344.5094,"MEAN_ANOMALY":290.6146,"EPHEMERIS_TYPE":0,"CLASSIFICATION_TYPE":"U","NORAD_CAT_ID":39500,"ELEMENT_SET_NO":999,"REV_AT_EPOCH":4519,"BSTAR":0,"MEAN_MOTION_DOT":-1.29e-06,"MEAN_MOTION_DDOT":0},{"OBJECT_NAME":"TDRS 12","OBJECT_ID":"2014-004A","EPOCH":"2026-05-22T03:41:00.098304","MEAN_MOTION":1.00275872,"ECCENTRICITY":0.0002518,"INCLINATION":3.953,"RA_OF_ASC_NODE":18.6735,"ARG_OF_PERICENTER":221.8781,"MEAN_ANOMALY":13.4961,"EPHEMERIS_TYPE":0,"CLASSIFICATION_TYPE":"U","NORAD_CAT_ID":39504,"ELEMENT_SET_NO":999,"REV_AT_EPOCH":4401,"BSTAR":0,"MEAN_MOTION_DOT":-2.78e-06,"MEAN_MOTION_DDOT":0},{"OBJECT_NAME":"ABS-2","OBJECT_ID":"2014-006A","EPOCH":"2026-05-22T02:31:25.664160","MEAN_MOTION":1.00271611,"ECCENTRICITY":0.0003853,"INCLINATION":0.0524,"RA_OF_ASC_NODE":91.9874,"ARG_OF_PERICENTER":322.0944,"MEAN_ANOMALY":298.4417,"EPHEMERIS_TYPE":0,"CLASSIFICATION_TYPE":"U","NORAD_CAT_ID":39508,"ELEMENT_SET_NO":999,"REV_AT_EPOCH":4501,"BSTAR":0,"MEAN_MOTION_DOT":-9.4e-07,"MEAN_MOTION_DDOT":0},{"OBJECT_NAME":"ATHENA-FIDUS","OBJECT_ID":"2014-006B","EPOCH":"2026-05-22T05:46:04.080864","MEAN_MOTION":1.00270622,"ECCENTRICITY":0.00013105,"INCLINATION":0.0354,"RA_OF_ASC_NODE":102.7686,"ARG_OF_PERICENTER":313.0093,"MEAN_ANOMALY":308.4066,"EPHEMERIS_TYPE":0,"CLASSIFICATION_TYPE":"U","NORAD_CAT_ID":39509,"ELEMENT_SET_NO":999,"REV_AT_EPOCH":4482,"BSTAR":0,"MEAN_MOTION_DOT":1.46e-06,"MEAN_MOTION_DDOT":0},{"OBJECT_NAME":"TURKSAT 4A","OBJECT_ID":"2014-007A","EPOCH":"2026-05-22T05:47:18.961152","MEAN_MOTION":1.00272841,"ECCENTRICITY":0.00017878,"INCLINATION":0.0522,"RA_OF_ASC_NODE":293.1669,"ARG_OF_PERICENTER":36.8356,"MEAN_ANOMALY":38.7134,"EPHEMERIS_TYPE":0,"CLASSIFICATION_TYPE":"U","NORAD_CAT_ID":39522,"ELEMENT_SET_NO":999,"REV_AT_EPOCH":4470,"BSTAR":0,"MEAN_MOTION_DOT":1.38e-06,"MEAN_MOTION_DDOT":0},{"OBJECT_NAME":"EXPRESS-AT1","OBJECT_ID":"2014-010A","EPOCH":"2026-05-22T04:09:42.346656","MEAN_MOTION":1.00296307,"ECCENTRICITY":0.00028165,"INCLINATION":0.1917,"RA_OF_ASC_NODE":85.7519,"ARG_OF_PERICENTER":30.3322,"MEAN_ANOMALY":245.7665,"EPHEMERIS_TYPE":0,"CLASSIFICATION_TYPE":"U","NORAD_CAT_ID":39612,"ELEMENT_SET_NO":999,"REV_AT_EPOCH":4455,"BSTAR":0,"MEAN_MOTION_DOT":4e-07,"MEAN_MOTION_DDOT":0},{"OBJECT_NAME":"EXPRESS-AT2","OBJECT_ID":"2014-010B","EPOCH":"2026-05-22T04:08:42.442080","MEAN_MOTION":1.00272463,"ECCENTRICITY":6.172e-05,"INCLINATION":0.0178,"RA_OF_ASC_NODE":291.2475,"ARG_OF_PERICENTER":19.2036,"MEAN_ANOMALY":47.5213,"EPHEMERIS_TYPE":0,"CLASSIFICATION_TYPE":"U","NORAD_CAT_ID":39613,"ELEMENT_SET_NO":999,"REV_AT_EPOCH":4423,"BSTAR":0,"MEAN_MOTION_DOT":7e-07,"MEAN_MOTION_DDOT":0}]